ONEWEB-0327             
1 49196U 21083L   23260.73948372  .00023740  00000+0  59868-1 0  9991
2 49196  87.9294 175.0146 0002258  84.1052 276.0337 13.18865225 99053
ONEWEB-0328             
1 49197U 21083M   23260.73452067  .00000033  00000+0  56561-4 0  9993
2 49197  87.9076 159.8795 0001753  67.0730 293.0584 13.13468728100467
ONEWEB-0331             
1 49198U 21083N   23260.30230624  .00000088  00000+0  19147-3 0  9998
2 49198  87.9229 175.1287 0001733  73.4317 286.7005 13.18686328 97707
ONEWEB-0333             
1 49199U 21083P   23260.72921303  .00000089  00000+0  20864-3 0  9995
2 49199  87.9076 159.8827 0002027  78.0391 282.0965 13.13467944100476
ONEWEB-0334             
1 49200U 21083Q   23260.10623216  .00000101  00000+0  21759-3 0  9991
2 49200  87.9172 114.4063 0002441  96.4535 263.6877 13.20770004104258
ONEWEB-0335             
1 49201U 21083R   23260.72498388  .00000234  00000+0  60589-3 0  9991
2 49201  87.9075 159.8731 0001861  68.9375 291.1953 13.13472359100483
ONEWEB-0336             
1 49202U 21083S   23260.76941565  .00000018  00000+0  13400-4 0  9997
2 49202  87.9074 159.8621 0001921  76.1264 284.0079 13.13472952100496
ONEWEB-0337             
1 49203U 21083T   23260.71580677  .00073109  00000+0  19688+0 0  9996
2 49203  87.9075 159.8780 0002247  98.4747 261.6637 13.14057578100483
